H1 CPF 01  gfz 2022 01 28 13  5282 terrasarx 
H2 0702601  6201 31698    2022 01 28 12 59 42 2022 02 02 00 00 42   120 1 1  0 0 0
H9
10 0 59608  26622.000000  0   -4418266.019    930484.251  -5209843.077
10 0 59608  26742.000000  0   -4990283.424   1280840.677  -4580466.407
10 0 59608  26862.000000  0   -5469507.251   1618122.360  -3870870.117
10 0 59608  26982.000000  0   -5847795.422   1934738.267  -3093407.811
10 0 59608  27102.000000  0   -6118880.314   2223319.819  -2261653.057
10 0 59608  27222.000000  0   -6278484.663   2476886.785  -1390165.773
10 0 59608  27342.000000  0   -6324399.962   2689009.481   -494236.545
10 0 59608  27462.000000  0   -6256524.623   2853962.381    410386.625
10 0 59608  27582.000000  0   -6076858.786   2966865.156   1307783.103
10 0 59608  27702.000000  0   -5789456.315   3023807.940   2182148.624
10 0 59608  27822.000000  0   -5400335.031   3021956.458   3018082.505
10 0 59608  27942.000000  0   -4917348.720   2959635.125   3800866.655
10 0 59608  28062.000000  0   -4350022.341   2836384.860   4516730.745
10 0 59608  28182.000000  0   -3709356.494   2652995.442   5153096.101
10 0 59608  28302.000000  0   -3007607.070   2411512.334   5698796.030
10 0 59608  28422.000000  0   -2258043.360   2115217.680   6144269.572
10 0 59608  28542.000000  0   -1474690.535   1768585.285   6481723.919
10 0 59608  28662.000000  0    -672062.519   1377211.348   6705263.791
10 0 59608  28782.000000  0     135107.681    947722.269   6810987.325
10 0 59608  28902.000000  0     932137.717    487661.590   6797049.849
10 0 59608  29022.000000  0    1704661.810      5357.817   6663693.769
10 0 59608  29142.000000  0    2438888.409   -490225.462   6413245.182
10 0 59608  29262.000000  0    3121846.257   -989655.538   6050076.851
10 0 59608  29382.000000  0    3741615.906  -1483208.795   5580537.126
10 0 59608  29502.000000  0    4287541.767  -1961059.785   5012844.310
10 0 59608  29622.000000  0    4750419.989  -2413476.527   4356948.681
10 0 59608  29742.000000  0    5122661.282  -2831019.486   3624364.146
10 0 59608  29862.000000  0    5398424.030  -3204739.909   2827968.249
10 0 59608  29982.000000  0    5573712.158  -3526371.703   1981774.313
10 0 59608  30102.000000  0    5646436.434  -3788513.552   1100682.284
10 0 59608  30222.000000  0    5616438.323  -3984796.502    200210.138
10 0 59608  30342.000000  0    5485474.541  -4110031.423   -703786.932
10 0 59608  30462.000000  0    5257162.897  -4160333.921  -1595405.207
10 0 59608  30582.000000  0    4936890.292  -4133221.694  -2458980.863
10 0 59608  30702.000000  0    4531685.511  -4027683.391  -3279371.617
10 0 59608  30822.000000  0    4050061.216  -3844217.339  -4042226.057
10 0 59608  30942.000000  0    3501828.892  -3584839.295  -4734234.505
10 0 59608  31062.000000  0    2897892.709  -3253059.915  -5343357.465
10 0 59608  31182.000000  0    2250027.224  -2853833.024  -5859026.888
10 0 59608  31302.000000  0    1570645.567  -2393478.015  -6272318.793
10 0 59608  31422.000000  0     872561.212  -1879576.668  -6576098.537
10 0 59608  31542.000000  0     168747.008  -1320844.838  -6765133.552
10 0 59608  31662.000000  0    -527902.308   -726984.311  -6836173.130
10 0 59608  31782.000000  0   -1204800.562   -108516.833  -6787997.384
10 0 59608  31902.000000  0   -1849892.350    523398.005  -6621435.604
10 0 59608  32022.000000  0   -2451862.745   1157158.885  -6339352.990
10 0 59608  32142.000000  0   -3000331.485   1780930.373  -5946606.795
10 0 59608  32262.000000  0   -3486030.396   2382858.989  -5449972.283
10 0 59608  32382.000000  0   -3900962.428   2951296.081  -4858037.949
10 0 59608  32502.000000  0   -4238538.585   3475022.956  -4181067.678
10 0 59608  32622.000000  0   -4493687.950   3943473.431  -3430832.154
10 0 59608  32742.000000  0   -4662939.658   4346950.204  -2620412.957
10 0 59608  32862.000000  0   -4744475.526   4676829.421  -1763979.266
10 0 59608  32982.000000  0   -4738150.498   4925748.699   -876541.888
10 0 59608  33102.000000  0   -4645480.660   5087774.215     26312.832
10 0 59608  33222.000000  0   -4469595.414   5158540.892    928703.454
10 0 59608  33342.000000  0   -4215158.749   5135362.110   1814741.050
10 0 59608  33462.000000  0   -3888257.422   5017304.788   2668819.703
10 0 59608  33582.000000  0   -3496260.028   4805228.253   3475899.648
10 0 59608  33702.000000  0   -3047651.953   4501787.206   4221777.772
10 0 59608  33822.000000  0   -2551850.996   4111399.006   4893341.361
10 0 59608  33942.000000  0   -2019006.913   3640175.158   5478799.815
10 0 59608  34062.000000  0   -1459790.583   3095819.152   5967889.678
10 0 59608  34182.000000  0    -885177.497   2487493.783   6352049.751
10 0 59608  34302.000000  0    -306231.344   1825660.998   6624563.644
10 0 59608  34422.000000  0     266108.192   1121899.196   6780671.467
10 0 59608  34542.000000  0     821231.968    388698.469   6817647.803
10 0 59608  34662.000000  0    1349056.928   -360760.494   6734845.741
10 0 59608  34782.000000  0    1840208.328  -1112842.552   6533708.487
10 0 59608  34902.000000  0    2286186.051  -1853705.511   6217745.849
10 0 59608  35022.000000  0    2679512.808  -2569554.619   5792478.014
10 0 59608  35142.000000  0    3013862.025  -3246900.853   5265344.456
10 0 59608  35262.000000  0    3284161.931  -3872817.821   4645579.568
10 0 59608  35382.000000  0    3486675.378  -4435192.860   3944056.703
10 0 59608  35502.000000  0    3619053.180  -4922967.870   3173100.520
10 0 59608  35622.000000  0    3680358.752  -5326363.094   2346271.235
10 0 59608  35742.000000  0    3671064.071  -5637079.514   1478123.990
10 0 59608  35862.000000  0    3593016.301  -5848474.093    583947.551
10 0 59608  35982.000000  0    3449375.992  -5955702.428   -320511.259
10 0 59608  36102.000000  0    3244529.651  -5955828.364  -1219333.205
10 0 59608  36222.000000  0    2983975.076  -5847893.265  -2096716.762
10 0 59608  36342.000000  0    2674185.856  -5632945.897  -2937262.718
10 0 59608  36462.000000  0    2322457.750  -5314031.783  -3726250.647
10 0 59608  36582.000000  0    1936740.126  -4896141.879  -4449899.190
10 0 59608  36702.000000  0    1525457.870  -4386123.408  -5095603.661
10 0 59608  36822.000000  0    1097330.081  -3792557.084  -5652149.019
10 0 59608  36942.000000  0     661187.886  -3125603.540  -6109895.748
10 0 59608  37062.000000  0     225794.901  -2396822.676  -6460935.774
10 0 59608  37182.000000  0    -200325.377  -1618969.624  -6699217.797
10 0 59608  37302.000000  0    -609051.960   -805771.180  -6820641.485
10 0 59608  37422.000000  0    -992816.289     28313.902  -6823120.519
10 0 59608  37542.000000  0   -1344738.740    868346.592  -6706613.443
10 0 59608  37662.000000  0   -1658749.098   1699168.127  -6473124.057
10 0 59608  37782.000000  0   -1929688.819   2505666.667  -6126670.490
10 0 59608  37902.000000  0   -2153395.420   3273046.821  -5673224.943
10 0 59608  38022.000000  0   -2326766.754   3987099.020  -5120620.849
10 0 59608  38142.000000  0   -2447804.544   4634463.861  -4478429.465
10 0 59608  38262.000000  0   -2515636.172   5202887.029  -3757804.144
10 0 59608  38382.000000  0   -2530512.952   5681457.480  -2971294.546
10 0 59608  38502.000000  0   -2493785.080   6060825.462  -2132635.576
10 0 59608  38622.000000  0   -2407854.116   6333396.547  -1256510.357
10 0 59608  38742.000000  0   -2276102.957   6493492.196   -358291.547
10 0 59608  38862.000000  0   -2102805.658   6537476.455    546230.778
10 0 59608  38982.000000  0   -1893018.199   6463845.096   1441135.866
10 0 59608  39102.000000  0   -1652451.060   6273267.065   2310664.185
10 0 59608  39222.000000  0   -1387328.851   5968581.381   3139503.281
10 0 59608  39342.000000  0   -1104241.501   5554751.574   3913063.525
10 0 59608  39462.000000  0    -809990.850   5038779.229   4617739.798
10 0 59608  39582.000000  0    -511434.299   4429575.912   5241154.552
10 0 59608  39702.000000  0    -215329.759   3737798.438   5772372.115
10 0 59608  39822.000000  0      71811.629   2975654.927   6202087.281
10 0 59608  39942.000000  0     343864.233   2156681.054   6522782.931
10 0 59608  40062.000000  0     595215.122   1295495.054   6728855.353
10 0 59608  40182.000000  0     820877.309    407533.429   6816706.356
10 0 59608  40302.000000  0    1016586.864   -491225.476   6784801.328
10 0 59608  40422.000000  0    1178882.680  -1384548.021   6633695.637
10 0 59608  40542.000000  0    1305167.749  -2256238.124   6366025.862
10 0 59608  40662.000000  0    1393750.862  -3090431.118   5986467.317
10 0 59608  40782.000000  0    1443867.749  -3871884.813   5501656.786
10 0 59608  40902.000000  0    1455681.626  -4586260.521   4920080.954
10 0 59608  41022.000000  0    1430264.240  -5220390.354   4251934.497
10 0 59608  41142.000000  0    1369556.762  -5762528.968   3508947.337
10 0 59608  41262.000000  0    1276311.089  -6202581.157   2704179.721
10 0 59608  41382.000000  0    1154012.408  -6532298.261   1851791.964
10 0 59608  41502.000000  0    1006784.752  -6745442.117    966793.011
10 0 59608  41622.000000  0     839282.475  -6837910.840     64770.469
10 0 59608  41742.000000  0     656568.860  -6807822.984   -838393.351
10 0 59608  41862.000000  0     463985.189  -6655553.674  -1726811.958
10 0 59608  41982.000000  0     267016.041  -6383724.477  -2584881.914
10 0 59608  42102.000000  0      71153.054  -5997150.058  -3397562.236
10 0 59608  42222.000000  0    -118239.827  -5502742.375  -4150641.543
10 0 59608  42342.000000  0    -296056.267  -4909373.752  -4830986.432
10 0 59608  42462.000000  0    -457569.114  -4227704.871  -5426765.376
10 0 59608  42582.000000  0    -598541.121  -3469982.498  -5927646.773
10 0 59608  42702.000000  0    -715322.182  -2649811.161  -6324967.988
10 0 59608  42822.000000  0    -804931.763  -1781904.015  -6611873.880
10 0 59608  42942.000000  0    -865125.165   -881818.267  -6783423.756
10 0 59608  43062.000000  0    -894442.811     34320.710  -6836667.929
99
